[{"OBJECT_NAME":"STARLINK-4454","OBJECT_ID":"2022-099AL","EPOCH":"2026-03-09T21:07:03.605376","MEAN_MOTION":15.05646203,"ECCENTRICITY":7.42e-5,"INCLINATION":97.604,"RA_OF_ASC_NODE":191.4609,"ARG_OF_PERICENTER":230.7408,"MEAN_ANOMALY":129.3753,"EPHEMERIS_TYPE":0,"CLASSIFICATION_TYPE":"U","NORAD_CAT_ID":53499,"ELEMENT_SET_NO":999,"REV_AT_EPOCH":19608,"BSTAR":3.8063679e-5,"MEAN_MOTION_DOT":4.88e-6,"MEAN_MOTION_DDOT":0},{"OBJECT_NAME":"OKEAN-3","OBJECT_ID":"1991-039A","EPOCH":"2026-03-09T19:29:17.530944","MEAN_MOTION":15.0480588,"ECCENTRICITY":0.00139411,"INCLINATION":82.519,"RA_OF_ASC_NODE":336.7249,"ARG_OF_PERICENTER":337.9296,"MEAN_ANOMALY":22.1329,"EPHEMERIS_TYPE":0,"CLASSIFICATION_TYPE":"U","NORAD_CAT_ID":21397,"ELEMENT_SET_NO":999,"REV_AT_EPOCH":86505,"BSTAR":0.00031884915,"MEAN_MOTION_DOT":4.536e-5,"MEAN_MOTION_DDOT":0}]
